     2.11           N: GPS NAV DATA                         RINEX VERSION / TYPE
teqc  2019Feb25                         20221121 12:27:05UTCPGM / RUN BY / DATE
OSX ker:10.11.6|Core i5|gcc 4.3 -m64|OSX ker:10.10+|=+      COMMENT
    6.5193D-09  1.4901D-08 -5.9605D-08 -1.1921D-07          ION ALPHA
    7.7824D+04  3.2768D+04 -6.5536D+04 -1.9661D+05          ION BETA
   -2.793967723846D-09-4.440892098501D-15   319488     1548 DELTA-UTC: A0,A1,T,W
                                                            END OF HEADER
19 09  9  8  8  0  0.0 1.173513010144D-05-1.705302565824D-12 0.000000000000D+00
    4.500000000000D+01-4.231250000000D+01 4.431970323639D-09 2.225933625310D+00
   -2.136453986168D-06 5.822384147905D-03 9.795650839806D-06 5.153653320312D+03
    2.016000000000D+05-2.607703208923D-08 3.034841723419D+00 1.676380634308D-08
    9.579856195120D-01 1.888750000000D+02-2.648153489765D-01-7.928187383685D-09
   -4.718053668730D-10 1.000000000000D+00 1.548000000000D+03 0.000000000000D+00
    2.000000000000D+00 0.000000000000D+00-1.490116119385D-08 4.500000000000D+01
    1.957020000000D+05 4.000000000000D+00
28 09  9  8  8  0  0.0-2.618646249175D-05 0.000000000000D+00 0.000000000000D+00
    5.600000000000D+01 2.812500000000D-01 4.579833625596D-09-2.860158897556D+00
    6.332993507385D-08 1.506232027896D-02 4.431232810020D-06 5.153644680023D+03
    2.016000000000D+05 1.508742570877D-07 1.944540352608D+00-1.005828380585D-07
    9.673053571108D-01 2.962187500000D+02-2.017610026836D+00-7.926044437280D-09
    1.132190017402D-10 1.000000000000D+00 1.548000000000D+03 0.000000000000D+00
    2.000000000000D+00 0.000000000000D+00-1.024454832077D-08 5.600000000000D+01
    1.957020000000D+05 4.000000000000D+00
27 09  9  8  8  0  0.0 8.095800876617D-05 3.183231456205D-12 0.000000000000D+00
    5.600000000000D+01-1.937500000000D+00 3.963736534108D-09 2.485367859810D+00
   -9.685754776001D-08 2.132152707782D-02 1.097097992897D-05 5.153749809265D+03
    2.016000000000D+05 2.235174179077D-07 8.088090044272D-01-1.452863216400D-07
    9.756199558815D-01 1.640625000000D+02-1.549161866227D+00-7.405308460822D-09
    1.192906832215D-10 1.000000000000D+00 1.548000000000D+03 0.000000000000D+00
    2.000000000000D+00 0.000000000000D+00-4.190951585770D-09 5.600000000000D+01
    1.957920000000D+05 4.000000000000D+00
22 09  9  8  8  0  0.0 1.914608292282D-04-7.958078640513D-13 0.000000000000D+00
    2.900000000000D+01 3.756250000000D+01 5.463084702263D-09-3.099441979719D+00
    1.786276698112D-06 5.331626976840D-03 2.207234501839D-06 5.153659254074D+03
    2.016000000000D+05 7.823109626770D-08-1.195359788150D+00-1.061707735062D-07
    9.382098519548D-01 3.259687500000D+02-1.893524645336D+00-8.720363238132D-09
    1.346484657919D-10 1.000000000000D+00 1.548000000000D+03 0.000000000000D+00
    2.000000000000D+00 0.000000000000D+00-1.769512891769D-08 2.900000000000D+01
    1.975320000000D+05 4.000000000000D+00
 9 09  9  8  8  0  0.0 7.633073255420D-05 2.046363078989D-12 0.000000000000D+00
    4.000000000000D+01 1.059375000000D+01 4.142315401206D-09-8.033242334274D-01
    6.109476089478D-07 2.071114024147D-02 1.129880547524D-05 5.153633857727D+03
    2.016000000000D+05-2.924352884293D-07 8.330933977297D-01 1.750886440277D-07
    9.775564322464D-01 1.732187500000D+02 1.510806462673D+00-8.156054018102D-09
    3.110843864848D-10 1.000000000000D+00 1.548000000000D+03 0.000000000000D+00
    2.000000000000D+00 0.000000000000D+00-5.587935447693D-09 4.000000000000D+01
    1.979520000000D+05 4.000000000000D+00
27 09  9  8  7 59 44.0 8.096732199192D-05 3.183231456205D-12 0.000000000000D+00
    3.000000000000D+00-1.937500000000D+00 3.963736534108D-09 2.483033905677D+00
   -9.685754776001D-08 2.132151648402D-02 1.097097992897D-05 5.153749784470D+03
    2.015840000000D+05 2.235174179077D-07 8.088091156090D-01-1.452863216400D-07
    9.756199529557D-01 1.640625000000D+02-1.549161459536D+00-7.405308460822D-09
    1.192906832215D-10 1.000000000000D+00 1.548000000000D+03 0.000000000000D+00
    2.000000000000D+00 0.000000000000D+00-4.190951585770D-09 3.000000000000D+00
    1.988580000000D+05 4.000000000000D+00
26 09  9  8  8  0  0.0 6.328057497740D-05-9.094947017729D-13 0.000000000000D+00
    3.900000000000D+01-8.228125000000D+01 3.986594629097D-09-4.658981422534D-01
   -4.081055521965D-06 1.970441592857D-02 8.359551429749D-06 5.153607782364D+03
    2.016000000000D+05-8.381903171539D-08-1.229740143384D-01 2.533197402954D-07
    9.925571006044D-01 2.380000000000D+02 1.024908724934D+00-8.152125283026D-09
   -3.782300405137D-10 1.000000000000D+00 1.548000000000D+03 0.000000000000D+00
    2.000000000000D+00 0.000000000000D+00-6.053596735001D-09 3.900000000000D+01
    2.006520000000D+05 4.000000000000D+00
15 09  9  8 11  0  0.0-3.175530582666D-04-1.250555214938D-12 0.000000000000D+00
    1.900000000000D+02-8.137500000000D+01 4.719482299667D-09-2.117761329786D+00
   -4.148110747337D-06 1.656207372434D-03 7.236376404762D-06 5.153658308029D+03
    2.124000000000D+05-1.303851604462D-07-1.963526041998D-01-3.166496753693D-08
    9.560382239266D-01 2.422187500000D+02-5.166995115458D-01-8.184983794572D-09
   -2.335811581642D-10 1.000000000000D+00 1.548000000000D+03 0.000000000000D+00
    2.800000000000D+00 0.000000000000D+00-9.778887033463D-09 1.900000000000D+02
    2.016180000000D+05 6.000000000000D+00
21 09  9  8 10  0  0.0-7.920898497105D-06-2.273736754432D-12 0.000000000000D+00
    2.700000000000D+01 9.375000000000D+01 4.924847996830D-09 2.131591337450D-01
    5.040317773819D-06 1.554763049353D-02 9.991228580475D-06 5.153763441086D+03
    2.088000000000D+05 1.192092895508D-07-2.259429299854D+00 3.241002559662D-07
    9.336534151209D-01 1.745625000000D+02-2.560873507689D+00-8.428208211559D-09
    2.335811581642D-10 1.000000000000D+00 1.548000000000D+03 0.000000000000D+00
    2.000000000000D+00 0.000000000000D+00-1.210719347000D-08 2.700000000000D+01
    2.016180000000D+05 4.000000000000D+00
 9 09  9  8 10  0  0.0 7.634563371539D-05 2.046363078989D-12 0.000000000000D+00
    4.000000000000D+00 2.656250000000D+00 4.236247885300D-09 2.468570259917D-01
    2.197921276093D-07 2.070905826986D-02 1.074559986591D-05 5.153629707336D+03
    2.088000000000D+05-2.942979335785D-07 8.330348458965D-01-3.352761268616D-08
    9.775585607922D-01 1.858125000000D+02 1.510829019407D+00-8.173554747077D-09
    2.246522148093D-10 1.000000000000D+00 1.548000000000D+03 0.000000000000D+00
    2.800000000000D+00 0.000000000000D+00-5.587935447693D-09 4.000000000000D+00
    2.016180000000D+05 4.000000000000D+00
27 09  9  8  9 59 44.0 8.099060505629D-05 3.183231456205D-12 0.000000000000D+00
    8.000000000000D+00 6.468750000000D+00 4.063740699683D-09-2.750045417996D+00
    3.613531589508D-07 2.132303558756D-02 1.050345599651D-05 5.153747175217D+03
    2.087840000000D+05 2.775341272354D-07 8.087542532552D-01 1.899898052216D-07
    9.756216250710D-01 1.768750000000D+02-1.549135985743D+00-7.425666451671D-09
    3.860875106660D-10 1.000000000000D+00 1.548000000000D+03 0.000000000000D+00
    2.000000000000D+00 0.000000000000D+00-4.190951585770D-09 8.000000000000D+00
    2.016180000000D+05 4.000000000000D+00
22 09  9  8 10  0  0.0 1.914547756314D-04-7.958078640513D-13 0.000000000000D+00
    3.000000000000D+01 3.690625000000D+01 5.403796518387D-09-2.049279063830D+00
    1.927837729454D-06 5.332332919352D-03 1.644715666771D-06 5.153657951355D+03
    2.088000000000D+05 6.519258022308D-08-1.195422933546D+00 5.587935447693D-09
    9.382112066169D-01 3.319062500000D+02-1.893490306260D+00-8.716077345321D-09
    2.103659054415D-10 1.000000000000D+00 1.548000000000D+03 0.000000000000D+00
    2.000000000000D+00 0.000000000000D+00-1.769512891769D-08 3.000000000000D+01
    2.016180000000D+05 4.000000000000D+00
28 09  9  8 10  0  0.0-2.618599683046D-05 0.000000000000D+00 0.000000000000D+00
    5.700000000000D+01-2.125000000000D+00 4.617692345421D-09-1.809931196339D+00
   -7.450580596924D-08 1.506181480363D-02 4.719942808151D-06 5.153645921707D+03
    2.088000000000D+05 2.998858690262D-07 1.944483546036D+00-1.303851604462D-08
    9.673059920172D-01 2.920625000000D+02-2.017639226681D+00-7.995690195448D-09
    5.750239520557D-11 1.000000000000D+00 1.548000000000D+03 0.000000000000D+00
    2.000000000000D+00 0.000000000000D+00-1.024454832077D-08 5.700000000000D+01
    2.016180000000D+05 4.000000000000D+00
26 09  9  8 10  0  0.0 6.327405571938D-05-9.094947017729D-13 0.000000000000D+00
    4.000000000000D+01-8.412500000000D+01 3.985880313628D-09 5.843152545500D-01
   -4.190951585770D-06 1.970421848819D-02 8.471310138702D-06 5.153607404709D+03
    2.088000000000D+05-2.011656761169D-07-1.230322106826D-01 1.471489667892D-07
    9.925542230446D-01 2.375937500000D+02 1.024912652869D+00-8.121409717885D-09
   -4.743054710124D-10 1.000000000000D+00 1.548000000000D+03 0.000000000000D+00
    2.000000000000D+00 0.000000000000D+00-6.053596735001D-09 4.000000000000D+01
    2.016180000000D+05 4.000000000000D+00
19 09  9  8 10  0  0.0 1.172302290797D-05-1.705302565824D-12 0.000000000000D+00
    4.600000000000D+01-3.690625000000D+01 4.459828626907D-09-3.007019837669D+00
   -1.884996891022D-06 5.823172046803D-03 9.965151548386D-06 5.153651803970D+03
    2.088000000000D+05-2.607703208923D-08 3.034784640356D+00 1.490116119385D-08
    9.579822167646D-01 1.860000000000D+02-2.648539890317D-01-7.928544541419D-09
   -4.721625246072D-10 1.000000000000D+00 1.548000000000D+03 0.000000000000D+00
    2.000000000000D+00 0.000000000000D+00-1.490116119385D-08 4.600000000000D+01
    2.016180000000D+05 4.000000000000D+00
